GLOBALSTAR M024         
1 25883U 99043A   25253.58139594  .00000005  00000+0  24668-2 0  9994
2 25883  51.9995 187.9422 0000927 256.5301 274.2631 11.10165464124347
GLOBALSTAR M027         
1 25884U 99043B   25253.75880316 -.00000021  00000+0  16098-2 0  9996
2 25884  52.0188 267.9527 0021436 129.5868 230.6822 11.04372414150697
GLOBALSTAR M054         
1 25885U 99043C   25253.68584883 -.00000060  00000+0  27499-3 0  9990
2 25885  52.0175  21.0617 0004742 326.5843 138.9283 11.39220350128792
GLOBALSTAR M053         
1 25886U 99043D   25253.53340955 -.00000052  00000+0  49314-3 0  9996
2 25886  52.0019 333.2613 0003327 220.0940 242.6062 11.27666492129076
GLOBALSTAR M058         
1 25907U 99049A   25253.67093829 -.00000078  00000+0  87785-4 0  9999
2 25907  51.9916 240.9112 0002372  74.1567 285.9529 11.93202803551740
GLOBALSTAR M050         
1 25908U 99049B   25253.75239542 -.00000130  00000+0 -47824-3 0  9992
2 25908  51.9966 241.9768 0008932 202.1024 329.2542 12.07457447158521
GLOBALSTAR M033         
1 25909U 99049C   25253.86337495 -.00000107  00000+0 -14283-3 0  9998
2 25909  51.9900 107.5846 0014767  79.7290 280.5221 12.20298143546200
GLOBALSTAR M055         
1 25910U 99049D   25252.97179959 -.00000062  00000+0  27536-3 0  9994
2 25910  52.0008 116.7142 0006625 314.3119  45.7189 12.29431956178717
